{
  "type": "FeatureCollection",
  "features": [
    {
      "type": "Feature",
      "properties": {
        "norad_id": 66545,
        "name": "SHIJIAN-30A",
        "group": "last-30-days",
        "lat": 7.344671506224811,
        "lon": -14.913622781050954,
        "alt_km": 510.5160424642663,
        "timestamp": "2025-12-11T08:58:25.854421+00:00",
        "meta_object_name": "SHIJIAN-30A",
        "meta_object_id": "2025-266A",
        "meta_epoch": "2025-12-11T04:11:06.716256",
        "meta_mean_motion": 15.15597987,
        "meta_eccentricity": 0.0012754,
        "meta_inclination": 51.7985,
        "meta_ra_of_asc_node": 340.1956,
        "meta_arg_of_pericenter": 350.8039,
        "meta_mean_anomaly": 9.2702,
        "meta_ephemeris_type": 0,
        "meta_classification_type": "U",
        "meta_norad_cat_id": 66545,
        "meta_element_set_no": 999,
        "meta_rev_at_epoch": 334,
        "meta_bstar": 0.00084706,
        "meta_mean_motion_dot": 0.00016045,
        "meta_mean_motion_ddot": 0,
        "tle_line1": "1 66545U 25266A   25345.17438329  .00016045  00000+0  84706-3 0  9996",
        "tle_line2": "2 66545  51.7985 340.1956 0012754 350.8039   9.2702 15.15597987  3345"
      },
      "geometry": {
        "type": "Point",
        "coordinates": [
          -14.913622781050954,
          7.344671506224811
        ]
      }
    },
    {
      "type": "Feature",
      "properties": {
        "norad_id": 66546,
        "name": "SHIJIAN-30B",
        "group": "last-30-days",
        "lat": 3.287502162562752,
        "lon": -18.1394272561946,
        "alt_km": 513.0916536498598,
        "timestamp": "2025-12-11T08:58:25.854432+00:00",
        "meta_object_name": "SHIJIAN-30B",
        "meta_object_id": "2025-266B",
        "meta_epoch": "2025-12-11T04:12:25.615872",
        "meta_mean_motion": 15.15350119,
        "meta_eccentricity": 0.0010462,
        "meta_inclination": 51.7968,
        "meta_ra_of_asc_node": 340.1983,
        "meta_arg_of_pericenter": 353.7632,
        "meta_mean_anomaly": 6.3212,
        "meta_ephemeris_type": 0,
        "meta_classification_type": "U",
        "meta_norad_cat_id": 66546,
        "meta_element_set_no": 999,
        "meta_rev_at_epoch": 334,
        "meta_bstar": 0.00097762,
        "meta_mean_motion_dot": 0.00018429,
        "meta_mean_motion_ddot": 0,
        "tle_line1": "1 66546U 25266B   25345.17529648  .00018429  00000+0  97762-3 0  9996",
        "tle_line2": "2 66546  51.7968 340.1983 0010462 353.7632   6.3212 15.15350119  3340"
      },
      "geometry": {
        "type": "Point",
        "coordinates": [
          -18.1394272561946,
          3.287502162562752
        ]
      }
    },
    {
      "type": "Feature",
      "properties": {
        "norad_id": 66547,
        "name": "SHIJIAN-30C",
        "group": "last-30-days",
        "lat": 1.3669668684917162,
        "lon": -19.648733905438224,
        "alt_km": 512.6172485125762,
        "timestamp": "2025-12-11T08:58:25.854442+00:00",
        "meta_object_name": "SHIJIAN-30C",
        "meta_object_id": "2025-266C",
        "meta_epoch": "2025-12-11T04:13:05.448864",
        "meta_mean_motion": 15.1545719,
        "meta_eccentricity": 0.0011339,
        "meta_inclination": 51.7977,
        "meta_ra_of_asc_node": 340.203,
        "meta_arg_of_pericenter": 345.2441,
        "meta_mean_anomaly": 14.8203,
        "meta_ephemeris_type": 0,
        "meta_classification_type": "U",
        "meta_norad_cat_id": 66547,
        "meta_element_set_no": 999,
        "meta_rev_at_epoch": 334,
        "meta_bstar": 0.00085528,
        "meta_mean_motion_dot": 0.00016132,
        "meta_mean_motion_ddot": 0,
        "tle_line1": "1 66547U 25266C   25345.17575751  .00016132  00000+0  85528-3 0  9999",
        "tle_line2": "2 66547  51.7977 340.2030 0011339 345.2441  14.8203 15.15457190  3344"
      },
      "geometry": {
        "type": "Point",
        "coordinates": [
          -19.648733905438224,
          1.3669668684917162
        ]
      }
    },
    {
      "type": "Feature",
      "properties": {
        "norad_id": 66548,
        "name": "CZ-2C R/B",
        "group": "last-30-days",
        "lat": 48.43532969695631,
        "lon": 39.418872813586894,
        "alt_km": 475.01921994928034,
        "timestamp": "2025-12-11T08:58:25.854452+00:00",
        "meta_object_name": "CZ-2C R/B",
        "meta_object_id": "2025-266D",
        "meta_epoch": "2025-12-11T03:57:23.309568",
        "meta_mean_motion": 15.30124012,
        "meta_eccentricity": 0.0083992,
        "meta_inclination": 52.0561,
        "meta_ra_of_asc_node": 338.7826,
        "meta_arg_of_pericenter": 167.6033,
        "meta_mean_anomaly": 192.7046,
        "meta_ephemeris_type": 0,
        "meta_classification_type": "U",
        "meta_norad_cat_id": 66548,
        "meta_element_set_no": 999,
        "meta_rev_at_epoch": 337,
        "meta_bstar": 0.00047846,
        "meta_mean_motion_dot": 0.00015394,
        "meta_mean_motion_ddot": 0,
        "tle_line1": "1 66548U 25266D   25345.16485312  .00015394  00000+0  47846-3 0  9992",
        "tle_line2": "2 66548  52.0561 338.7826 0083992 167.6033 192.7046 15.30124012  3375"
      },
      "geometry": {
        "type": "Point",
        "coordinates": [
          39.418872813586894,
          48.43532969695631
        ]
      }
    },
    {
      "type": "Feature",
      "properties": {
        "norad_id": 66549,
        "name": "SHIJIAN-28",
        "group": "last-30-days",
        "lat": 6.137482724281545,
        "lon": -54.49482424186293,
        "alt_km": 28562.76464663012,
        "timestamp": "2025-12-11T08:58:25.854465+00:00",
        "meta_object_name": "SHIJIAN-28",
        "meta_object_id": "2025-277A",
        "meta_epoch": "2025-12-01T04:36:42.476256",
        "meta_mean_motion": 2.08595383,
        "meta_eccentricity": 0.6308324,
        "meta_inclination": 11.5392,
        "meta_ra_of_asc_node": 275.706,
        "meta_arg_of_pericenter": 179.9335,
        "meta_mean_anomaly": 180.3971,
        "meta_ephemeris_type": 0,
        "meta_classification_type": "U",
        "meta_norad_cat_id": 66549,
        "meta_element_set_no": 999,
        "meta_rev_at_epoch": 5,
        "meta_bstar": 0,
        "meta_mean_motion_dot": -3.3e-07,
        "meta_mean_motion_ddot": 0,
        "tle_line1": "1 66549U 25277A   25335.19215829 -.00000033  00000+0  00000+0 0  9993",
        "tle_line2": "2 66549  11.5392 275.7060 6308324 179.9335 180.3971  2.08595383    50"
      },
      "geometry": {
        "type": "Point",
        "coordinates": [
          -54.49482424186293,
          6.137482724281545
        ]
      }
    },
    {
      "type": "Feature",
      "properties": {
        "norad_id": 66550,
        "name": "CZ-7A R/B",
        "group": "last-30-days",
        "lat": -13.790349111389247,
        "lon": -162.08944887732335,
        "alt_km": 6121.843025585092,
        "timestamp": "2025-12-11T08:58:25.854488+00:00",
        "meta_object_name": "CZ-7A R/B",
        "meta_object_id": "2025-277B",
        "meta_epoch": "2025-12-09T05:27:24.418944",
        "meta_mean_motion": 2.57975656,
        "meta_eccentricity": 0.71041719,
        "meta_inclination": 14.4001,
        "meta_ra_of_asc_node": 271.6446,
        "meta_arg_of_pericenter": 185.6905,
        "meta_mean_anomaly": 156.7335,
        "meta_ephemeris_type": 0,
        "meta_classification_type": "U",
        "meta_norad_cat_id": 66550,
        "meta_element_set_no": 999,
        "meta_rev_at_epoch": 25,
        "meta_bstar": 0.0029500826,
        "meta_mean_motion_dot": 0.01805656,
        "meta_mean_motion_ddot": 5.50612e-07,
        "tle_line1": "1 66550U 25277B   25343.22736596  .01805656  55061-6  29501-2 0  9995",
        "tle_line2": "2 66550  14.4001 271.6446 7104171 185.6905 156.7335  2.57975656   258"
      },
      "geometry": {
        "type": "Point",
        "coordinates": [
          -162.08944887732335,
          -13.790349111389247
        ]
      }
    },
    {
      "type": "Feature",
      "properties": {
        "norad_id": 66551,
        "name": "USA 568",
        "group": "last-30-days",
        "lat": -22.366374019312115,
        "lon": 175.86761743074607,
        "alt_km": 287.58615072623616,
        "timestamp": "2025-12-11T08:58:25.854499+00:00",
        "meta_object_name": "USA 568",
        "meta_object_id": "2024-134K",
        "meta_epoch": "2025-12-02T16:00:03.000096",
        "meta_mean_motion": 15.87051116,
        "meta_eccentricity": 7.17e-05,
        "meta_inclination": 53.1571,
        "meta_ra_of_asc_node": 236.7807,
        "meta_arg_of_pericenter": 110.7411,
        "meta_mean_anomaly": 313.9012,
        "meta_ephemeris_type": 0,
        "meta_classification_type": "U",
        "meta_norad_cat_id": 66551,
        "meta_element_set_no": 999,
        "meta_rev_at_epoch": 262,
        "meta_bstar": -0.0074303,
        "meta_mean_motion_dot": -0.01709685,
        "meta_mean_motion_ddot": 0,
        "tle_line1": "1 66551U 24134K   25336.66670139 -.01709685  00000+0 -74303-2 0  9990",
        "tle_line2": "2 66551  53.1571 236.7807 0000717 110.7411 313.9012 15.87051116  2624"
      },
      "geometry": {
        "type": "Point",
        "coordinates": [
          175.86761743074607,
          -22.366374019312115
        ]
      }
    }
  ]
}